NORAD_CAT_ID,OBJECT_NAME,OBJECT_TYPE,EPOCH,MEAN_MOTION,ECCENTRICITY,INCLINATION,RA_OF_ASC_NODE,ARG_OF_PERICENTER,MEAN_ANOMALY,BSTAR,MEAN_MOTION_DOT,MEAN_MOTION_DDOT,TLE_LINE0,TLE_LINE1,TLE_LINE2,SEMIMAJOR_AXIS,PERIOD,APOGEE,PERIGEE,DECAYED
52851.0,STARLINK-3809,PAYLOAD,2023-09-12 22:56:07,15.08842115,0.000118,53.2163,143.5839,96.3078,263.8048,2.2012e-05,6.3e-07,0.0,0 STARLINK-3809,1 52851U 22062X   23255.95564412  .00000063  00000-0  22012-4 0  9996,2 52851  53.2163 143.5839 0001180  96.3078 263.8048 15.08842115 69224,6917.874,95.437,540.555,538.923,0.0
52851.0,STARLINK-3809,PAYLOAD,2023-09-13 21:11:30,15.08851535,0.0001271,53.2169,139.4211,89.836,270.2778,7.8521e-05,9.62e-06,0.0,0 STARLINK-3809,1 52851U 22062X   23256.88299317  .00000962  00000-0  78521-4 0  9992,2 52851  53.2169 139.4211 0001271  89.8360 270.2778 15.08851535 68878,6917.845,95.437,540.589,538.831,0.0
52851.0,STARLINK-3809,PAYLOAD,2023-09-14 01:57:39,15.08880255,0.0001332,53.2173,138.5287,102.725,257.3891,-0.00025454,-4.341e-05,0.0,0 STARLINK-3809,1 52851U 22062X   23257.08170414 -.00004341  00000-0 -25454-3 0  9994,2 52851  53.2173 138.5287 0001332 102.7250 257.3891 15.08880255 69398,6917.757,95.435,540.544,538.701,0.0
52851.0,STARLINK-3809,PAYLOAD,2023-09-14 13:05:21,15.08851796,0.0001324,53.2174,136.4472,95.208,264.9063,0.0001714,2.442e-05,0.0,0 STARLINK-3809,1 52851U 22062X   23257.54538700  .00002442  00000-0  17140-3 0  9992,2 52851  53.2174 136.4472 0001324  95.2080 264.9063 15.08851796 68976,6917.844,95.437,540.625,538.793,0.0
52851.0,STARLINK-3809,PAYLOAD,2023-09-14 21:02:19,15.08828548,0.0001461,53.2173,134.9647,77.1771,282.9384,-0.00010236,-1.916e-05,0.0,0 STARLINK-3809,1 52851U 22062X   23257.87661605 -.00001916  00000-0 -10236-3 0  9995,2 52851  53.2173 134.9647 0001461  77.1771 282.9384 15.08828548 69022,6917.915,95.438,540.791,538.77,0.0
52851.0,STARLINK-3809,PAYLOAD,2023-09-15 01:48:28,15.0883035,0.0001459,53.2167,134.0704,85.8519,274.2639,-8.5205e-05,-1.643e-05,0.0,0 STARLINK-3809,1 52851U 22062X   23258.07533498 -.00001643  00000-0 -85205-4 0  9992,2 52851  53.2167 134.0704 0001459  85.8519 274.2639 15.08830350 69541,6917.91,95.438,540.784,538.766,0.0
52851.0,STARLINK-3809,PAYLOAD,2023-09-16 01:39:14,15.08848996,0.0001409,53.2169,129.6085,93.5421,266.5732,6.15e-05,6.91e-06,0.0,0 STARLINK-3809,1 52851U 22062X   23259.06892016  .00000691  00000-0  61500-4 0  9998,2 52851  53.2169 129.6085 0001409  93.5421 266.5732 15.08848996 69697,6917.853,95.437,540.693,538.743,0.0
52851.0,STARLINK-3809,PAYLOAD,2023-09-16 15:57:43,15.08829614,0.0001991,53.2181,126.9297,119.3319,240.7872,0.00021629,3.155e-05,0.0,0 STARLINK-3809,1 52851U 22062X   23259.66509043  .00003155  00000-0  21629-3 0  9994,2 52851  53.2181 126.9297 0001991 119.3319 240.7872 15.08829614 69780,6917.912,95.438,541.154,538.4,0.0
52851.0,STARLINK-3809,PAYLOAD,2023-09-17 01:30:02,15.08830306,0.0001437,53.218,125.1488,101.2333,258.8821,0.00026058,3.861e-05,0.0,0 STARLINK-3809,1 52851U 22062X   23260.06253264  .00003861  00000-0  26058-3 0  9996,2 52851  53.2180 125.1488 0001437 101.2333 258.8821 15.08830306 69350,6917.91,95.438,540.769,538.781,0.0
52851.0,STARLINK-3809,PAYLOAD,2023-09-17 23:45:26,15.088481,0.0001539,53.217,120.985,104.923,255.1932,7.3322e-05,8.79e-06,0.0,0 STARLINK-3809,1 52851U 22062X   23260.98988744  .00000879  00000-0  73322-4 0  9998,2 52851  53.2170 120.9850 0001539 104.9230 255.1932 15.08848100 69987,6917.856,95.437,540.785,538.656,0.0
52851.0,STARLINK-3809,PAYLOAD,2023-09-18 20:25:27,15.08843046,0.0001464,53.2174,117.1195,88.4062,271.7098,0.00010941,1.454e-05,0.0,0 STARLINK-3809,1 52851U 22062X   23261.85101056  .00001454  00000-0  10941-3 0  9995,2 52851  53.2174 117.1195 0001464  88.4062 271.7098 15.08843046 69629,6917.871,95.437,540.749,538.723,0.0
52851.0,STARLINK-3809,PAYLOAD,2023-09-18 23:36:13,15.08845508,0.000143,53.216,116.5249,76.4344,283.6807,0.00014669,2.048e-05,0.0,0 STARLINK-3809,1 52851U 22062X   23261.98348839  .00002048  00000-0  14669-3 0  9992,2 52851  53.2160 116.5249 0001430  76.4344 283.6807 15.08845508 70133,6917.864,95.437,540.718,538.739,0.0
52851.0,STARLINK-3809,PAYLOAD,2023-09-19 23:26:59,15.08857853,0.0001372,53.2162,112.0656,73.6444,286.4699,0.00024208,3.569e-05,0.0,0 STARLINK-3809,1 52851U 22062X   23262.97707896  .00003569  00000-0  24208-3 0  9993,2 52851  53.2162 112.0656 0001372  73.6444 286.4699 15.08857853 70285,6917.826,95.436,540.64,538.742,0.0
52851.0,STARLINK-3809,PAYLOAD,2023-09-20 18:31:38,15.08829459,0.0001548,53.2166,108.4941,78.1175,281.9991,-0.00015977,-2.829e-05,0.0,0 STARLINK-3809,1 52851U 22062X   23263.77197478 -.00002829  00000-0 -15977-3 0  9994,2 52851  53.2166 108.4941 0001548  78.1175 281.9991 15.08829459 70401,6917.913,95.438,540.849,538.707,0.0
52851.0,STARLINK-3809,PAYLOAD,2023-09-20 20:07:01,15.08827159,0.0001484,53.2159,108.1987,75.5947,284.521,-0.00017836,-3.124e-05,0.0,0 STARLINK-3809,1 52851U 22062X   23263.83821650 -.00003124  00000-0 -17836-3 0  9992,2 52851  53.2159 108.1987 0001484  75.5947 284.5210 15.08827159 69920,6917.92,95.438,540.811,538.758,0.0
52851.0,STARLINK-3809,PAYLOAD,2023-09-21 18:22:25,15.08839303,0.000144,53.2177,104.0306,93.1624,266.9533,-3.4545e-05,-8.38e-06,0.0,0 STARLINK-3809,1 52851U 22062X   23264.76557733 -.00000838  00000-0 -34545-4 0  9999,2 52851  53.2177 104.0306 0001440  93.1624 266.9533 15.08839303 70557,6917.883,95.438,540.744,538.751,0.0
52851.0,STARLINK-3809,PAYLOAD,2023-09-22 13:27:03,15.08848701,0.0001503,53.2168,100.466,92.8501,267.2663,0.00048121,7.381e-05,0.0,0 STARLINK-3809,1 52851U 22062X   23265.56045817  .00007381  00000-0  48121-3 0  9995,2 52851  53.2168 100.4660 0001503  92.8501 267.2663 15.08848701 70189,6917.854,95.437,540.759,538.679,0.0
52851.0,STARLINK-3809,PAYLOAD,2023-09-22 18:13:12,15.08858939,0.0001493,53.2165,99.5752,90.3585,269.7578,0.00063808,9.887e-05,0.0,0 STARLINK-3809,1 52851U 22062X   23265.75917502  .00009887  00000-0  63808-3 0  9997,2 52851  53.2165  99.5752 0001493  90.3585 269.7578 15.08858939 70703,6917.823,95.436,540.72,538.655,0.0
52851.0,STARLINK-3809,PAYLOAD,2023-09-22 19:48:35,15.0886339,0.0001496,53.2166,99.2771,91.7375,268.3788,0.00072982,0.00011354,0.0,0 STARLINK-3809,1 52851U 22062X   23265.82541359  .00011354  00000-0  72982-3 0  9993,2 52851  53.2166  99.2771 0001496  91.7375 268.3788 15.08863390 70229,6917.809,95.436,540.709,538.639,0.0
52851.0,STARLINK-3809,PAYLOAD,2023-09-22 21:23:58,15.08867342,0.0001496,53.2165,98.9795,90.9353,269.181,0.00079514,0.00012399,0.0,0 STARLINK-3809,1 52851U 22062X   23265.89165212  .00012399  00000-0  79514-3 0  9998,2 52851  53.2165  98.9795 0001496  90.9353 269.1810 15.08867342 70234,6917.797,95.436,540.697,538.627,0.0
52851.0,STARLINK-3809,PAYLOAD,2023-09-23 18:03:59,15.08848783,0.0001576,53.217,95.1123,113.0165,247.0993,0.00010499,1.384e-05,0.0,0 STARLINK-3809,1 52851U 22062X   23266.75277107  .00001384  00000-0  10499-3 0  9990,2 52851  53.2170  95.1123 0001576 113.0165 247.0993 15.08848783 70854,6917.854,95.437,540.809,538.628,0.0
52851.0,STARLINK-3809,PAYLOAD,2023-09-24 17:54:46,15.08848429,0.000156,53.2172,90.6537,108.974,251.1422,-1.9873e-05,-6.04e-06,0.0,0 STARLINK-3809,1 52851U 22062X   23267.74637000 -.00000604  00000-0 -19873-4 0  9994,2 52851  53.2172  90.6537 0001560 108.9740 251.1422 15.08848429 71008,6917.855,95.437,540.799,538.64,0.0
52851.0,STARLINK-3809,PAYLOAD,2023-09-24 21:05:32,15.08849099,0.0001222,53.2165,90.0603,89.5489,270.5643,0.00017087,2.433e-05,0.0,0 STARLINK-3809,1 52851U 22062X   23267.87885082  .00002433  00000-0  17087-3 0  9997,2 52851  53.2165  90.0603 0001222  89.5489 270.5643 15.08849099 70538,6917.853,95.437,540.563,538.872,0.0
52851.0,STARLINK-3809,PAYLOAD,2023-09-25 05:02:28,15.08846083,0.0001185,53.2155,88.5716,89.1975,270.9153,0.00019086,2.751e-05,0.0,0 STARLINK-3809,1 52851U 22062X   23268.21005139  .00002751  00000-0  19086-3 0  9997,2 52851  53.2155  88.5716 0001185  89.1975 270.9153 15.08846083 70583,6917.862,95.437,540.547,538.907,0.0
52851.0,STARLINK-3809,PAYLOAD,2023-09-25 19:20:56,15.08848374,0.00013,53.2169,85.8962,93.9065,266.2076,0.00026536,3.939e-05,0.0,0 STARLINK-3809,1 52851U 22062X   23268.80621114  .00003939  00000-0  26536-3 0  9996,2 52851  53.2169  85.8962 0001300  93.9065 266.2076 15.08848374 71165,6917.855,95.437,540.619,538.82,0.0
52851.0,STARLINK-3809,PAYLOAD,2023-09-25 20:56:19,15.08851101,0.0001328,53.2171,85.5997,96.1434,263.971,0.00031455,4.723e-05,0.0,0 STARLINK-3809,1 52851U 22062X   23268.87245017  .00004723  00000-0  31455-3 0  9995,2 52851  53.2171  85.5997 0001328  96.1434 263.9710 15.08851101 70685,6917.846,95.437,540.63,538.793,0.0
52851.0,STARLINK-3809,PAYLOAD,2023-09-26 17:36:20,15.08835053,0.0001633,53.2146,81.7297,141.1353,218.9757,-5.3328e-05,-1.137e-05,0.0,0 STARLINK-3809,1 52851U 22062X   23269.73357617 -.00001137  00000-0 -53328-4 0  9993,2 52851  53.2146  81.7297 0001633 141.1353 218.9757 15.08835053 71307,6917.896,95.438,540.89,538.631,0.0
52851.0,STARLINK-3809,PAYLOAD,2023-09-26 20:47:07,15.08836184,0.0001364,53.2156,81.1376,90.5576,269.5572,7.4447e-05,8.97e-06,0.0,0 STARLINK-3809,1 52851U 22062X   23269.86606092  .00000897  00000-0  74447-4 0  9996,2 52851  53.2156  81.1376 0001364  90.5576 269.5572 15.08836184 70835,6917.892,95.438,540.701,538.813,0.0
52851.0,STARLINK-3809,PAYLOAD,2023-09-27 04:44:03,15.08835745,0.0001317,53.2156,79.6501,90.1096,270.0047,0.00017448,2.49e-05,0.0,0 STARLINK-3809,1 52851U 22062X   23270.19726253  .00002490  00000-0  17448-3 0  9994,2 52851  53.2156  79.6501 0001317  90.1096 270.0047 15.08835745 70889,6917.893,95.438,540.669,538.847,0.0
52851.0,STARLINK-3809,PAYLOAD,2023-09-27 19:02:31,15.08847879,0.0001353,53.2157,76.9733,90.1259,269.9888,0.00059491,9.195e-05,0.0,0 STARLINK-3809,1 52851U 22062X   23270.79342187  .00009195  00000-0  59491-3 0  9993,2 52851  53.2157  76.9733 0001353  90.1259 269.9888 15.08847879 71464,6917.856,95.437,540.657,538.785,0.0
